{
  "norad_id": 40296,
  "name": "MERIDIAN 7",
  "history": [
    {
      "epoch": "2026-03-27T10:13:03.529920Z",
      "apogee_km": 37917.87858008477,
      "perigee_km": 2443.174339685468,
      "latitude_deg": -7.789096709260983e-05,
      "longitude_deg": -114.71669373417406,
      "height_km": 8154.037420633144,
      "semi_major_axis_km": 26558.66345988512,
      "eccentricity": 0.6678556,
      "inclination_deg": 63.4571,
      "raan_deg": 223.431,
      "arg_perigee_deg": 271.09,
      "mean_anomaly_deg": 19.1383,
      "mean_motion_rev_day": 2.00582684
    }
  ]
}